[{"OBJECT_NAME":"LIZZIESAT-1 (LS-1)","OBJECT_ID":"2024-043AL","EPOCH":"2026-03-09T21:24:55.126944","MEAN_MOTION":15.26635712,"ECCENTRICITY":0.00099234,"INCLINATION":97.5461,"RA_OF_ASC_NODE":203.4772,"ARG_OF_PERICENTER":229.9925,"MEAN_ANOMALY":130.0443,"EPHEMERIS_TYPE":0,"CLASSIFICATION_TYPE":"U","NORAD_CAT_ID":59132,"ELEMENT_SET_NO":999,"REV_AT_EPOCH":11178,"BSTAR":0.0002232873,"MEAN_MOTION_DOT":5.784e-5,"MEAN_MOTION_DDOT":0},{"OBJECT_NAME":"STARLINK-32578","OBJECT_ID":"2024-210W","EPOCH":"2026-03-08T07:48:49.555584","MEAN_MOTION":15.27606556,"ECCENTRICITY":7.266e-5,"INCLINATION":42.9997,"RA_OF_ASC_NODE":187.3287,"ARG_OF_PERICENTER":232.2096,"MEAN_ANOMALY":127.869,"EPHEMERIS_TYPE":0,"CLASSIFICATION_TYPE":"U","NORAD_CAT_ID":61979,"ELEMENT_SET_NO":999,"REV_AT_EPOCH":7471,"BSTAR":0.0015408954,"MEAN_MOTION_DOT":0.00042418,"MEAN_MOTION_DDOT":0}]
