LIZZIESAT-1 (LS-1)      
1 59132U 24043AL  26068.89230471  .00005784  00000+0  22329-3 0  9993
2 59132  97.5461 203.4772 0009923 229.9925 130.0443 15.26635711111780
STARLINK-32578          
1 61979U 24210W   26067.32557356  .00042418  00000+0  15409-2 0  9997
2 61979  42.9997 187.3287 0000726 232.2096 127.8690 15.27606556 74714
